CCSDS_OMM_VERS = 2.0
CREATION_DATE  = 
ORIGINATOR     = 

OBJECT_NAME    = STARLINK-36918
OBJECT_ID      = 2026-037AA
CENTER_NAME    = EARTH
REF_FRAME      = TEME
TIME_SYSTEM    = UTC
MEAN_ELEMENT_THEORY = SGP/SGP4

EPOCH          = 2026-03-18T11:04:35.531904
MEAN_MOTION    = 15.82958374
ECCENTRICITY   = .00135845
INCLINATION    = 43.0011
RA_OF_ASC_NODE = 144.5435
ARG_OF_PERICENTER = 261.4552
MEAN_ANOMALY   = 98.4781

EPHEMERIS_TYPE = 0
CLASSIFICATION_TYPE = U
NORAD_CAT_ID   = 67956
ELEMENT_SET_NO = 999
REV_AT_EPOCH   = 464
BSTAR          = .142793E-2
MEAN_MOTION_DOT = .327705E-2
MEAN_MOTION_DDOT = 0

CCSDS_OMM_VERS = 2.0
CREATION_DATE  = 
ORIGINATOR     = 

OBJECT_NAME    = STARLINK-36829
OBJECT_ID      = 2026-037AB
CENTER_NAME    = EARTH
REF_FRAME      = TEME
TIME_SYSTEM    = UTC
MEAN_ELEMENT_THEORY = SGP/SGP4

EPOCH          = 2026-03-18T14:00:01.000224
MEAN_MOTION    = 15.70248242
ECCENTRICITY   = .00012687
INCLINATION    = 42.9994
RA_OF_ASC_NODE = 143.9764
ARG_OF_PERICENTER = 275.7379
MEAN_ANOMALY   = 348.4431

EPHEMERIS_TYPE = 0
CLASSIFICATION_TYPE = U
NORAD_CAT_ID   = 67957
ELEMENT_SET_NO = 999
REV_AT_EPOCH   = 462
BSTAR          = -.17081477E-1
MEAN_MOTION_DOT = -.1898073E-1
MEAN_MOTION_DDOT = 0

CCSDS_OMM_VERS = 2.0
CREATION_DATE  = 
ORIGINATOR     = 

OBJECT_NAME    = STARLINK-36799
OBJECT_ID      = 2026-037AC
CENTER_NAME    = EARTH
REF_FRAME      = TEME
TIME_SYSTEM    = UTC
MEAN_ELEMENT_THEORY = SGP/SGP4

EPOCH          = 2026-03-18T14:00:01.000224
MEAN_MOTION    = 15.79542284
ECCENTRICITY   = .00015683
INCLINATION    = 42.9991
RA_OF_ASC_NODE = 143.8026
ARG_OF_PERICENTER = 280.8313
MEAN_ANOMALY   = 52.9446

EPHEMERIS_TYPE = 0
CLASSIFICATION_TYPE = U
NORAD_CAT_ID   = 67958
ELEMENT_SET_NO = 999
REV_AT_EPOCH   = 462
BSTAR          = -.11359138E-1
MEAN_MOTION_DOT = -.1865495E-1
MEAN_MOTION_DDOT = 0

CCSDS_OMM_VERS = 2.0
CREATION_DATE  = 
ORIGINATOR     = 

OBJECT_NAME    = STARLINK-36834
OBJECT_ID      = 2026-037AD
CENTER_NAME    = EARTH
REF_FRAME      = TEME
TIME_SYSTEM    = UTC
MEAN_ELEMENT_THEORY = SGP/SGP4

EPOCH          = 2026-03-18T14:00:01.000224
MEAN_MOTION    = 15.70033717
ECCENTRICITY   = .00013719
INCLINATION    = 42.9994
RA_OF_ASC_NODE = 143.9277
ARG_OF_PERICENTER = 275.7119
MEAN_ANOMALY   = 7.6001

EPHEMERIS_TYPE = 0
CLASSIFICATION_TYPE = U
NORAD_CAT_ID   = 67959
ELEMENT_SET_NO = 999
REV_AT_EPOCH   = 462
BSTAR          = -.17249911E-1
MEAN_MOTION_DOT = -.189943E-1
MEAN_MOTION_DDOT = 0

CCSDS_OMM_VERS = 2.0
CREATION_DATE  = 
ORIGINATOR     = 

OBJECT_NAME    = STARLINK-36841
OBJECT_ID      = 2026-037AE
CENTER_NAME    = EARTH
REF_FRAME      = TEME
TIME_SYSTEM    = UTC
MEAN_ELEMENT_THEORY = SGP/SGP4

EPOCH          = 2026-03-16T12:04:37.020864
MEAN_MOTION    = 15.82830893
ECCENTRICITY   = .00018947
INCLINATION    = 42.9981
RA_OF_ASC_NODE = 156.5268
ARG_OF_PERICENTER = 354.5035
MEAN_ANOMALY   = 5.5816

EPHEMERIS_TYPE = 0
CLASSIFICATION_TYPE = U
NORAD_CAT_ID   = 67960
ELEMENT_SET_NO = 999
REV_AT_EPOCH   = 433
BSTAR          = .27816077E-2
MEAN_MOTION_DOT = .656337E-2
MEAN_MOTION_DDOT = 0

CCSDS_OMM_VERS = 2.0
CREATION_DATE  = 
ORIGINATOR     = 

OBJECT_NAME    = STARLINK-36912
OBJECT_ID      = 2026-038A
CENTER_NAME    = EARTH
REF_FRAME      = TEME
TIME_SYSTEM    = UTC
MEAN_ELEMENT_THEORY = SGP/SGP4

EPOCH          = 2026-03-18T14:00:01.000224
MEAN_MOTION    = 15.68172558
ECCENTRICITY   = .00019005
INCLINATION    = 97.2855
RA_OF_ASC_NODE = 88.3187
ARG_OF_PERICENTER = 79.0175
MEAN_ANOMALY   = 13.2872

EPHEMERIS_TYPE = 0
CLASSIFICATION_TYPE = U
NORAD_CAT_ID   = 67961
ELEMENT_SET_NO = 999
REV_AT_EPOCH   = 463
BSTAR          = -.24375438E-1
MEAN_MOTION_DOT = -.2385634E-1
MEAN_MOTION_DDOT = 0

CCSDS_OMM_VERS = 2.0
CREATION_DATE  = 
ORIGINATOR     = 

OBJECT_NAME    = STARLINK-36881
OBJECT_ID      = 2026-038B
CENTER_NAME    = EARTH
REF_FRAME      = TEME
TIME_SYSTEM    = UTC
MEAN_ELEMENT_THEORY = SGP/SGP4

EPOCH          = 2026-03-18T14:00:01.000224
MEAN_MOTION    = 15.68552627
ECCENTRICITY   = .00017644
INCLINATION    = 97.2858
RA_OF_ASC_NODE = 88.3229
ARG_OF_PERICENTER = 80.9857
MEAN_ANOMALY   = 19.1399

EPHEMERIS_TYPE = 0
CLASSIFICATION_TYPE = U
NORAD_CAT_ID   = 67962
ELEMENT_SET_NO = 999
REV_AT_EPOCH   = 463
BSTAR          = -.24047726E-1
MEAN_MOTION_DOT = -.2389927E-1
MEAN_MOTION_DDOT = 0

CCSDS_OMM_VERS = 2.0
CREATION_DATE  = 
ORIGINATOR     = 

OBJECT_NAME    = STARLINK-36357
OBJECT_ID      = 2026-038C
CENTER_NAME    = EARTH
REF_FRAME      = TEME
TIME_SYSTEM    = UTC
MEAN_ELEMENT_THEORY = SGP/SGP4

EPOCH          = 2026-03-18T14:00:01.000224
MEAN_MOTION    = 15.63251853
ECCENTRICITY   = .00016925
INCLINATION    = 97.2851
RA_OF_ASC_NODE = 88.3137
ARG_OF_PERICENTER = 81.6775
MEAN_ANOMALY   = 355.3381

EPHEMERIS_TYPE = 0
CLASSIFICATION_TYPE = U
NORAD_CAT_ID   = 67963
ELEMENT_SET_NO = 999
REV_AT_EPOCH   = 463
BSTAR          = -.29546058E-1
MEAN_MOTION_DOT = -.2373584E-1
MEAN_MOTION_DDOT = 0

CCSDS_OMM_VERS = 2.0
CREATION_DATE  = 
ORIGINATOR     = 

OBJECT_NAME    = STARLINK-36349
OBJECT_ID      = 2026-038D
CENTER_NAME    = EARTH
REF_FRAME      = TEME
TIME_SYSTEM    = UTC
MEAN_ELEMENT_THEORY = SGP/SGP4

EPOCH          = 2026-03-18T14:00:01.000224
MEAN_MOTION    = 15.63294319
ECCENTRICITY   = .00016062
INCLINATION    = 97.2851
RA_OF_ASC_NODE = 88.3105
ARG_OF_PERICENTER = 77.1429
MEAN_ANOMALY   = 352.2602

EPHEMERIS_TYPE = 0
CLASSIFICATION_TYPE = U
NORAD_CAT_ID   = 67964
ELEMENT_SET_NO = 999
REV_AT_EPOCH   = 463
BSTAR          = -.29500092E-1
MEAN_MOTION_DOT = -.2373748E-1
MEAN_MOTION_DDOT = 0

CCSDS_OMM_VERS = 2.0
CREATION_DATE  = 
ORIGINATOR     = 

OBJECT_NAME    = STARLINK-36806
OBJECT_ID      = 2026-038E
CENTER_NAME    = EARTH
REF_FRAME      = TEME
TIME_SYSTEM    = UTC
MEAN_ELEMENT_THEORY = SGP/SGP4

EPOCH          = 2026-03-18T14:00:01.000224
MEAN_MOTION    = 15.69462637
ECCENTRICITY   = .00019188
INCLINATION    = 97.2859
RA_OF_ASC_NODE = 88.3316
ARG_OF_PERICENTER = 82.7269
MEAN_ANOMALY   = 39.4237

EPHEMERIS_TYPE = 0
CLASSIFICATION_TYPE = U
NORAD_CAT_ID   = 67965
ELEMENT_SET_NO = 999
REV_AT_EPOCH   = 463
BSTAR          = -.23197748E-1
MEAN_MOTION_DOT = -.2342888E-1
MEAN_MOTION_DDOT = 0

CCSDS_OMM_VERS = 2.0
CREATION_DATE  = 
ORIGINATOR     = 

OBJECT_NAME    = STARLINK-36820
OBJECT_ID      = 2026-038F
CENTER_NAME    = EARTH
REF_FRAME      = TEME
TIME_SYSTEM    = UTC
MEAN_ELEMENT_THEORY = SGP/SGP4

EPOCH          = 2026-03-18T14:00:01.000224
MEAN_MOTION    = 15.69835559
ECCENTRICITY   = .00018975
INCLINATION    = 97.2855
RA_OF_ASC_NODE = 88.3348
ARG_OF_PERICENTER = 83.9306
MEAN_ANOMALY   = 45.7081

EPHEMERIS_TYPE = 0
CLASSIFICATION_TYPE = U
NORAD_CAT_ID   = 67966
ELEMENT_SET_NO = 999
REV_AT_EPOCH   = 463
BSTAR          = -.22813516E-1
MEAN_MOTION_DOT = -.2340588E-1
MEAN_MOTION_DDOT = 0

CCSDS_OMM_VERS = 2.0
CREATION_DATE  = 
ORIGINATOR     = 

OBJECT_NAME    = STARLINK-36819
OBJECT_ID      = 2026-038G
CENTER_NAME    = EARTH
REF_FRAME      = TEME
TIME_SYSTEM    = UTC
MEAN_ELEMENT_THEORY = SGP/SGP4

EPOCH          = 2026-03-18T14:00:01.000224
MEAN_MOTION    = 15.49161843
ECCENTRICITY   = .00013173
INCLINATION    = 97.2844
RA_OF_ASC_NODE = 88.2413
ARG_OF_PERICENTER = 81.7877
MEAN_ANOMALY   = 182.1026

EPHEMERIS_TYPE = 0
CLASSIFICATION_TYPE = U
NORAD_CAT_ID   = 67967
ELEMENT_SET_NO = 999
REV_AT_EPOCH   = 463
BSTAR          = .51373116E-3
MEAN_MOTION_DOT = .27922E-3
MEAN_MOTION_DDOT = 0

CCSDS_OMM_VERS = 2.0
CREATION_DATE  = 
ORIGINATOR     = 

OBJECT_NAME    = STARLINK-36812
OBJECT_ID      = 2026-038H
CENTER_NAME    = EARTH
REF_FRAME      = TEME
TIME_SYSTEM    = UTC
MEAN_ELEMENT_THEORY = SGP/SGP4

EPOCH          = 2026-03-18T14:00:01.000224
MEAN_MOTION    = 15.70227474
ECCENTRICITY   = .00020106
INCLINATION    = 97.2857
RA_OF_ASC_NODE = 88.3395
ARG_OF_PERICENTER = 82.1523
MEAN_ANOMALY   = 60.9517

EPHEMERIS_TYPE = 0
CLASSIFICATION_TYPE = U
NORAD_CAT_ID   = 67968
ELEMENT_SET_NO = 999
REV_AT_EPOCH   = 463
BSTAR          = -.22429135E-1
MEAN_MOTION_DOT = -.2339565E-1
MEAN_MOTION_DDOT = 0

CCSDS_OMM_VERS = 2.0
CREATION_DATE  = 
ORIGINATOR     = 

OBJECT_NAME    = STARLINK-36709
OBJECT_ID      = 2026-038J
CENTER_NAME    = EARTH
REF_FRAME      = TEME
TIME_SYSTEM    = UTC
MEAN_ELEMENT_THEORY = SGP/SGP4

EPOCH          = 2026-03-18T14:00:01.000224
MEAN_MOTION    = 15.69997625
ECCENTRICITY   = .00020482
INCLINATION    = 97.2854
RA_OF_ASC_NODE = 88.3452
ARG_OF_PERICENTER = 82.2116
MEAN_ANOMALY   = 74.0386

EPHEMERIS_TYPE = 0
CLASSIFICATION_TYPE = U
NORAD_CAT_ID   = 67969
ELEMENT_SET_NO = 999
REV_AT_EPOCH   = 463
BSTAR          = -.22702603E-1
MEAN_MOTION_DOT = -.2344591E-1
MEAN_MOTION_DDOT = 0

CCSDS_OMM_VERS = 2.0
CREATION_DATE  = 
ORIGINATOR     = 

OBJECT_NAME    = STARLINK-36319
OBJECT_ID      = 2026-038K
CENTER_NAME    = EARTH
REF_FRAME      = TEME
TIME_SYSTEM    = UTC
MEAN_ELEMENT_THEORY = SGP/SGP4

EPOCH          = 2026-03-18T14:00:01.000224
MEAN_MOTION    = 15.64632869
ECCENTRICITY   = .00020172
INCLINATION    = 97.2850
RA_OF_ASC_NODE = 88.3313
ARG_OF_PERICENTER = 84.2296
MEAN_ANOMALY   = 35.8435

EPHEMERIS_TYPE = 0
CLASSIFICATION_TYPE = U
NORAD_CAT_ID   = 67970
ELEMENT_SET_NO = 999
REV_AT_EPOCH   = 460
BSTAR          = -.28081447E-1
MEAN_MOTION_DOT = -.2382068E-1
MEAN_MOTION_DDOT = 0

